[
    {
        "Altitude(m)": 711651.317864064,
        "Argument of Periapsis(deg)": 0.004556048474650827,
        "Eccentricity": 0.0,
        "Inclination(deg)": 45.0,
        "Latitude(deg)": -29.870529129517397,
        "Longitude(deg)": 69.87075948200123,
        "Mean Anomaly(deg)": -44.47761334100761,
        "RAAN(deg)": 204.9956992234167,
        "Satellite Name": "Constellation 1 921",
        "Satellite Number": 921,
        "Semi-Major Axis(m)": 7083131.272910544,
        "Time(s)": 76
    },
    {
        "Altitude(m)": 711637.6177480121,
        "Argument of Periapsis(deg)": 0.004615996480896233,
        "Eccentricity": 0.0,
        "Inclination(deg)": 45.0,
        "Latitude(deg)": -29.83519353574901,
        "Longitude(deg)": 69.92343126283747,
        "Mean Anomaly(deg)": -44.41691220075764,
        "RAAN(deg)": 204.99564263425114,
        "Satellite Name": "Constellation 1 921",
        "Satellite Number": 921,
        "Semi-Major Axis(m)": 7083131.272910544,
        "Time(s)": 77
    },
    {
        "Altitude(m)": 711623.9137858436,
        "Argument of Periapsis(deg)": 0.004675944487141638,
        "Eccentricity": 0.0,
        "Inclination(deg)": 45.0,
        "Latitude(deg)": -29.799833291749223,
        "Longitude(deg)": 69.97606322984883,
        "Mean Anomaly(deg)": -44.35621106050791,
        "RAAN(deg)": 204.9955860450856,
        "Satellite Name": "Constellation 1 921",
        "Satellite Number": 921,
        "Semi-Major Axis(m)": 7083131.272910544,
        "Time(s)": 78
    },
    {
        "Altitude(m)": 711610.2060255783,
        "Argument of Periapsis(deg)": 0.004735892493387044,
        "Eccentricity": 0.0,
        "Inclination(deg)": 45.0,
        "Latitude(deg)": -29.764448448968665,
        "Longitude(deg)": 70.02865544045822,
        "Mean Anomaly(deg)": -44.29550992025792,
        "RAAN(deg)": 204.99552945591998,
        "Satellite Name": "Constellation 1 921",
        "Satellite Number": 921,
        "Semi-Major Axis(m)": 7083131.272910544,
        "Time(s)": 79
    },
    {
        "Altitude(m)": 711596.494515235,
        "Argument of Periapsis(deg)": 0.004795840499632449,
        "Eccentricity": 0.0,
        "Inclination(deg)": 45.0,
        "Latitude(deg)": -29.729039058786938,
        "Longitude(deg)": 70.08120795214244,
        "Mean Anomaly(deg)": -44.23480878000798,
        "RAAN(deg)": 204.99547286675443,
        "Satellite Name": "Constellation 1 921",
        "Satellite Number": 921,
        "Semi-Major Axis(m)": 7083131.272910544,
        "Time(s)": 80
    },
    {
        "Altitude(m)": 711582.7793028364,
        "Argument of Periapsis(deg)": 0.004855788505877855,
        "Eccentricity": 0.0,
        "Inclination(deg)": 45.0,
        "Latitude(deg)": -29.693605172512125,
        "Longitude(deg)": 70.13372082243207,
        "Mean Anomaly(deg)": -44.17410763975812,
        "RAAN(deg)": 204.99541627758887,
        "Satellite Name": "Constellation 1 921",
        "Satellite Number": 921,
        "Semi-Major Axis(m)": 7083131.272910544,
        "Time(s)": 81
    },
    {
        "Altitude(m)": 711569.0604364123,
        "Argument of Periapsis(deg)": 0.00491573651212326,
        "Eccentricity": 0.0,
        "Inclination(deg)": 45.0,
        "Latitude(deg)": -29.658146841380905,
        "Longitude(deg)": 70.18619394081412,
        "Mean Anomaly(deg)": -44.11340649950824,
        "RAAN(deg)": 204.9953596884233,
        "Satellite Name": "Constellation 1 921",
        "Satellite Number": 921,
        "Semi-Major Axis(m)": 7083131.272910544,
        "Time(s)": 82
    },
    {
        "Altitude(m)": 711555.3379639941,
        "Argument of Periapsis(deg)": 0.004975684518368666,
        "Eccentricity": 0.0,
        "Inclination(deg)": 45.0,
        "Latitude(deg)": -29.622664116558298,
        "Longitude(deg)": 70.23862770111865,
        "Mean Anomaly(deg)": -44.052705359258304,
        "RAAN(deg)": 204.99530309925774,
        "Satellite Name": "Constellation 1 921",
        "Satellite Number": 921,
        "Semi-Major Axis(m)": 7083131.272910544,
        "Time(s)": 83
    },
    {
        "Altitude(m)": 711541.611933619,
        "Argument of Periapsis(deg)": 0.005035632524614072,
        "Eccentricity": 0.0,
        "Inclination(deg)": 45.0,
        "Latitude(deg)": -29.587157049138476,
        "Longitude(deg)": 70.29102199293669,
        "Mean Anomaly(deg)": -43.992004219008415,
        "RAAN(deg)": 204.99524651009213,
        "Satellite Name": "Constellation 1 921",
        "Satellite Number": 921,
        "Semi-Major Axis(m)": 7083131.272910544,
        "Time(s)": 84
    },
    {
        "Altitude(m)": 711527.8823933227,
        "Argument of Periapsis(deg)": 0.0050955805308594785,
        "Eccentricity": 0.0,
        "Inclination(deg)": 45.0,
        "Latitude(deg)": -29.55162569014415,
        "Longitude(deg)": 70.34337687400749,
        "Mean Anomaly(deg)": -43.931303078758575,
        "RAAN(deg)": 204.99518992092658,
        "Satellite Name": "Constellation 1 921",
        "Satellite Number": 921,
        "Semi-Major Axis(m)": 7083131.272910544,
        "Time(s)": 85
    },
    {
        "Altitude(m)": 711514.1493911456,
        "Argument of Periapsis(deg)": 0.005155528537104883,
        "Eccentricity": 0.0,
        "Inclination(deg)": 45.0,
        "Latitude(deg)": -29.516070090526707,
        "Longitude(deg)": 70.395692402121,
        "Mean Anomaly(deg)": -43.870601938508614,
        "RAAN(deg)": 204.99513333176102,
        "Satellite Name": "Constellation 1 921",
        "Satellite Number": 921,
        "Semi-Major Axis(m)": 7083131.272910544,
        "Time(s)": 86
    },
    {
        "Altitude(m)": 711500.4129751364,
        "Argument of Periapsis(deg)": 0.0052154765433502885,
        "Eccentricity": 0.0,
        "Inclination(deg)": 45.0,
        "Latitude(deg)": -29.480490301166473,
        "Longitude(deg)": 70.44796863511687,
        "Mean Anomaly(deg)": -43.80990079825865,
        "RAAN(deg)": 204.99507674259544,
        "Satellite Name": "Constellation 1 921",
        "Satellite Number": 921,
        "Semi-Major Axis(m)": 7083131.272910544,
        "Time(s)": 87
    },
    {
        "Altitude(m)": 711486.6731933363,
        "Argument of Periapsis(deg)": 0.005275424549595694,
        "Eccentricity": 0.0,
        "Inclination(deg)": 45.0,
        "Latitude(deg)": -29.444886372872674,
        "Longitude(deg)": 70.50020563088385,
        "Mean Anomaly(deg)": -43.74919965800879,
        "RAAN(deg)": 204.9950201534299,
        "Satellite Name": "Constellation 1 921",
        "Satellite Number": 921,
        "Semi-Major Axis(m)": 7083131.272910544,
        "Time(s)": 88
    },
    {
        "Altitude(m)": 711472.9300937975,
        "Argument of Periapsis(deg)": 0.0053353725558411,
        "Eccentricity": 0.0,
        "Inclination(deg)": 45.0,
        "Latitude(deg)": -29.40925835638337,
        "Longitude(deg)": 70.55240327926295,
        "Mean Anomaly(deg)": -43.68849851775896,
        "RAAN(deg)": 204.99496356426434,
        "Satellite Name": "Constellation 1 921",
        "Satellite Number": 921,
        "Semi-Major Axis(m)": 7083131.272910544,
        "Time(s)": 89
    },
    {
        "Altitude(m)": 711459.1837245679,
        "Argument of Periapsis(deg)": 0.005395320562086505,
        "Eccentricity": 0.0,
        "Inclination(deg)": 45.0,
        "Latitude(deg)": -29.37360630236528,
        "Longitude(deg)": 70.60456197443364,
        "Mean Anomaly(deg)": -43.62779737750907,
        "RAAN(deg)": 204.99490697509873,
        "Satellite Name": "Constellation 1 921",
        "Satellite Number": 921,
        "Semi-Major Axis(m)": 7083131.272910544,
        "Time(s)": 90
    },
    {
        "Altitude(m)": 711445.4341337008,
        "Argument of Periapsis(deg)": 0.00545526856833191,
        "Eccentricity": 0.0,
        "Inclination(deg)": 45.0,
        "Latitude(deg)": -29.337930261414403,
        "Longitude(deg)": 70.65668160633233,
        "Mean Anomaly(deg)": -43.56709623725911,
        "RAAN(deg)": 204.99485038593318,
        "Satellite Name": "Constellation 1 921",
        "Satellite Number": 921,
        "Semi-Major Axis(m)": 7083131.272910544,
        "Time(s)": 91
    },
    {
        "Altitude(m)": 711431.681369255,
        "Argument of Periapsis(deg)": 0.005515216574577317,
        "Eccentricity": 0.0,
        "Inclination(deg)": 45.0,
        "Latitude(deg)": -29.30223028405577,
        "Longitude(deg)": 70.7087622330389,
        "Mean Anomaly(deg)": -43.506395097009246,
        "RAAN(deg)": 204.9947937967676,
        "Satellite Name": "Constellation 1 921",
        "Satellite Number": 921,
        "Semi-Major Axis(m)": 7083131.272910544,
        "Time(s)": 92
    },
    {
        "Altitude(m)": 711417.925479283,
        "Argument of Periapsis(deg)": 0.005575164580822722,
        "Eccentricity": 0.0,
        "Inclination(deg)": 45.0,
        "Latitude(deg)": -29.266506420743326,
        "Longitude(deg)": 70.76080391267969,
        "Mean Anomaly(deg)": -43.44569395675928,
        "RAAN(deg)": 204.99473720760204,
        "Satellite Name": "Constellation 1 921",
        "Satellite Number": 921,
        "Semi-Major Axis(m)": 7083131.272910544,
        "Time(s)": 93
    },
    {
        "Altitude(m)": 711404.1665118407,
        "Argument of Periapsis(deg)": 0.005635112587068129,
        "Eccentricity": 0.0,
        "Inclination(deg)": 45.0,
        "Latitude(deg)": -29.23075872186029,
        "Longitude(deg)": 70.81280670342643,
        "Mean Anomaly(deg)": -43.384992816509445,
        "RAAN(deg)": 204.9946806184365,
        "Satellite Name": "Constellation 1 921",
        "Satellite Number": 921,
        "Semi-Major Axis(m)": 7083131.272910544,
        "Time(s)": 94
    }
]